2018-099BA              
1 43806U 18099BA  21359.56111376  .00001602  00000+0  14780-3 0  9999
2 43806  97.6415  65.5988 0016279 126.2324 234.0400 14.95931908166758
EUCROPIS                
1 43807U 18099BB  21359.43079449  .00001273  00000+0  11781-3 0  9992
2 43807  97.6481  66.2974 0013967 124.0742 236.1807 14.96203304166461
POLAR SCOUT YUKON       
1 43808U 18099BC  21359.44693063  .00001709  00000+0  15581-3 0  9994
2 43808  97.6476  66.4925 0013114 133.3719 226.8597 14.96357442166763
CENTAURI-1              
1 43809U 18099BD  21359.45321894  .00001325  00000+0  12269-3 0  9990
2 43809  97.6441  66.0512 0016202 129.7157 230.5496 14.96069394166755
2018-099BE              
1 43810U 18099BE  21359.55526733  .00001759  00000+0  16176-3 0  9994
2 43810  97.6328  64.6555 0015910 123.0601 237.2137 14.95953048166627
NEXTSAT-1               
1 43811U 18099BF  21359.54563098  .00001474  00000+0  13640-3 0  9996
2 43811  97.6441  66.0725 0014572 125.7279 234.5308 14.95951950166622
BLACKSKY GLOBAL 2       
1 43812U 18099BG  21359.42832330  .00000812  00000+0  77538-4 0  9994
2 43812  97.6422  65.6732 0014623 128.5945 231.6589 14.95915514166639
BRIO                    
1 43813U 18099BH  21359.48418470  .00003741  00000+0  33051-3 0  9991
2 43813  97.6597  68.1087 0015262 117.1855 243.0925 14.96865346166794
FALCONSAT-6             
1 43815U 18099BK  21359.47735367  .00001197  00000+0  10684-3 0  9999
2 43815  97.6680  66.5241 0021996 120.2282 240.1122 14.97655501166735
SPACEBEE-7              
1 43816U 18099BL  21359.14547815  .00002959  00000+0  26479-3 0  9999
2 43816  97.6495  66.3961 0014880 117.1193 243.1548 14.96526017166572
SPACEBEE-5              
1 43817U 18099BM  21359.43348959  .00005495  00000+0  46535-3 0  9993
2 43817  97.6617  68.6105 0014172 113.2512 247.0205 14.98326656166695
SPACEBEE-6              
1 43818U 18099BN  21359.45490952  .00003337  00000+0  29402-3 0  9994
2 43818  97.6517  67.2859 0014140 116.8672 243.3997 14.97058172166799
EXCITE                  
1 43819U 18099BP  21359.54761820  .00001190  00000+0  11160-3 0  9997
2 43819  97.6420  65.7194 0014648 128.6960 231.5574 14.95779451166644
SEAHAWK-1               
1 43820U 18099BQ  21359.56338161  .00001290  00000+0  11933-3 0  9998
2 43820  97.6401  65.6007 0013748 118.4791 241.7817 14.96178431166472
GEO-KOMPSAT-2A          
1 43823U 18100A   21359.59354979 -.00000325  00000+0  00000+0 0  9990
2 43823   0.0465 160.0751 0000232 289.8737 346.3104  1.00271271 11226
GSAT-11                 
1 43824U 18100B   21359.52670999 -.00000058  00000+0  00000+0 0  9990
2 43824   0.1096 276.1410 0002787 183.0496 258.6168  1.00272034 11114
SAUDISAT 5A             
1 43831U 18102A   21359.52728106  .00001293  00000+0  86623-4 0  9995
2 43831  97.5176  71.5437 0015904  59.2593 357.3848 15.08548841167955
SAUDISAT 5B             
1 43833U 18102C   21359.48084642  .00001470  00000+0  96748-4 0  9998
2 43833  97.5194  72.2803 0016785  65.2763  55.6823 15.08988360167984
TOMSAT R3 (AEROCUBE 11B)
1 43849U 18104A   21359.49656764  .00007861  00000+0  31429-3 0  9992
2 43849  85.0342 167.1279 0016433 171.5587 188.5937 15.24803886168175
SHIELDS 1               
1 43850U 18104B   21359.50706647  .00002988  00000+0  12756-3 0  9999
2 43850  85.0290 167.5020 0014429 176.9124 183.2210 15.22348347168031
ELECTRON KICK STAGE R/B 
1 43851U 18104C   21359.53474686  .00010123  00000+0  39489-3 0  9990
2 43851  85.0353 166.6898 0014297 159.5009 200.6812 15.25685893168212
STF-1                   
1 43852U 18104D   21359.50278456  .00007193  00000+0  29869-3 0  9999
2 43852  85.0326 168.1067 0012989 190.8779 169.2185 15.23566130168039
2018-104E               
1 43853U 18104E   21359.51379117  .00022037  00000+0  72971-3 0  9993
2 43853  85.0296 163.8908 0014405 151.8208 208.3821 15.31080986168414
2018-104F               
1 43854U 18104F   21359.52804198  .00009427  00000+0  36096-3 0  9993
2 43854  85.0282 165.1873 0016951 156.4193 203.7832 15.26257524168237
CHOMPTT                 
1 43855U 18104G   21359.54555053  .00007036  00000+0  27989-3 0  9994
2 43855  85.0367 166.8028 0017318 154.1424 206.0689 15.24938471168200
CP11 (ISX)              
1 43856U 18104H   21359.52324980  .00006365  00000+0  27021-3 0  9997
2 43856  85.0326 168.5923 0012959 198.1968 161.8813 15.22799791167996
DAVINCI                 
1 43857U 18104J   21359.46582419  .00021085  00000+0  76211-3 0  9995
2 43857  85.0313 166.0850 0013099 176.9493 183.1835 15.28251105168224
2018-104K               
1 43858U 18104K   21359.56010902  .00006224  00000+0  25995-3 0  9991
2 43858  85.0317 167.7101 0015024 184.1593 175.9527 15.23315753168062
2018-104L               
1 43859U 18104L   21359.52715005  .00005583  00000+0  23302-3 0  9991
2 43859  85.0296 167.3116 0012517 176.3561 183.7776 15.23348800168065
SHFT 1 (GOERGEN)        
1 43860U 18104M   21359.49625517  .00023614  00000+0  80183-3 0  9992
2 43860  85.0316 165.3564 0010385 159.6230 200.5433 15.30316789168318
TOMSAT EAGLESCOUT       
1 43861U 18104N   21359.58889669  .00006913  00000+0  27941-3 0  9999
2 43861  85.0425 168.4969 0015412 171.3251 188.8261 15.24436054168142
GSAT-7A                 
1 43864U 18105A   21359.30188470  .00000044  00000+0  00000+0 0  9997
2 43864   0.0729 100.9070 0002423 160.6121   4.0465  1.00271401 11074
COSMOS 2533             
1 43867U 18107A   21359.43660684 -.00000021  00000+0  00000+0 0  9994
2 43867   0.0413 102.4505 0000796 189.9302  28.9748  1.00271892 11032
HONGYUN 1               
1 43871U 18108A   21359.54565439 -.00000022  00000+0  34838-4 0  9996
2 43871  99.8913  15.2666 0013042 100.6643 259.5963 13.50517727148426
NAVSTAR 77 (USA 289)    
1 43873U 18109A   21359.55147314  .00000100  00000+0  00000+0 0  9993
2 43873  55.0613 156.7585 0016226 189.0762  85.5469  2.00564089 22289
TJS-3                   
1 43874U 18110A   21359.77900559  .00000075  00000+0  00000+0 0  9999
2 43874   0.0375 224.8580 0002055  76.6594 132.4235  1.00273794 11095
KANOPUS-V 5             
1 43876U 18111A   21359.49561227  .00000231  00000+0  13982-4 0  9998
2 43876  97.4387 265.6574 0001558  76.7681  96.2675 15.19701575164127
KANOPUS-V 6             
1 43877U 18111B   21359.45961894  .00002874  00000+0  13771-3 0  9999
2 43877  97.4385 265.6240 0001120  91.7992  25.7978 15.19724075164115
ISAT                    
1 43879U 18111D   21359.45716909  .00001522  00000+0  13713-3 0  9991
2 43879  97.6757 263.2318 0012213 177.2009 182.9283 14.96991315161621
UWE-4                   
1 43880U 18111E   21359.54972282  .00002562  00000+0  22617-3 0  9999
2 43880  97.6773 263.9147 0012208 176.0028 184.1294 14.97209421163674
D-STAR ONE (SPARROW)    
1 43881U 18111F   21359.51236553  .00001654  00000+0  14746-3 0  9996
2 43881  97.6796 264.0524 0011987 173.9271 186.2098 14.97291977163672
LEMUR-2-CHRISTINAHOLT   
1 43882U 18111G   21359.57270840  .00003132  00000+0  27031-3 0  9994
2 43882  97.6827 264.9184 0011254 170.7392 189.4040 14.97934136163724
LEMUR-2-TINYKEV         
1 43883U 18111H   21359.51939757  .00002289  00000+0  19835-3 0  9993
2 43883  97.6820 265.0094 0010945 174.5541 185.5803 14.98059768163728
LEMUR-2-REMY-COLTON     
1 43884U 18111J   21359.58258026  .00002819  00000+0  24197-3 0  9990
2 43884  97.6853 265.3939 0010595 173.1840 186.9529 14.98241129161759
LEMUR-2-GUSTAVO         
1 43885U 18111K   21359.50421494  .00003428  00000+0  29473-3 0  9993
2 43885  97.6844 265.1355 0011138 168.5345 191.6133 14.98021893163729
LEMUR-2-ZO              
1 43886U 18111L   21359.57403094  .00003357  00000+0  28806-3 0  9997
2 43886  97.6854 265.4281 0011019 167.3642 192.7859 14.98116443163742
LEMUR-2-NATALIEMURRAY   
1 43887U 18111M   21359.48737078  .00003555  00000+0  30389-3 0  9999
2 43887  97.6838 265.5709 0011676 168.2613 191.8884 14.98227779163741
LEMUR-2-SARAHBETTYBOO   
1 43888U 18111N   21359.51984334  .00002384  00000+0  20521-3 0  9999
2 43888  97.6863 265.8003 0010854 167.5508 192.5984 14.98269121163759
LEMUR-2-DAISY-HARPER    
1 43889U 18111P   21359.46048814  .00002330  00000+0  20032-3 0  9996
2 43889  97.6858 265.8922 0010828 169.6372 190.5075 14.98345801163745
GRUS-1A                 
1 43890U 18111Q   21359.47928193 -.00001275  00000+0 -11723-3 0  9992
2 43890  97.6529 256.7490 0002772 222.1618 137.9634 14.93088367163302
2018-111R               
1 43891U 18111R   21359.62234045  .00001390  00000+0  60572-4 0  9999
2 43891  97.2035 244.2183 0026083 352.9949  64.9819 15.23523995166607
FLOCK 3K-4              
1 43893U 18111T   21359.44502826  .00022608  00000+0  76472-3 0  9996
2 43893  97.2137 249.3380 0019398 339.5391  20.5071 15.30443734166901
FLOCK 3K-2              
1 43895U 18111V   21359.49997908  .00024215  00000+0  81787-3 0  9993
2 43895  97.2133 249.3550 0019740 338.6930  21.3487 15.30470800166913
FLOCK 3K-5              
1 43899U 18111Z   21359.62230770  .00024329  00000+0  82177-3 0  9999
2 43899  97.2139 249.5570 0018465 333.9334  26.0976 15.30492447166934
FLOCK 3K-7              
1 43902U 18111AC  21359.41633901  .00008441  00000+0  28778-3 0  9998
2 43902  97.2135 249.3488 0018726 335.4142  24.6205 15.30436643166907
FLOCK 3K-11             
1 43904U 18111AE  21359.46287170  .00030372  00000+0  10204-2 0  9990
2 43904  97.2140 249.4681 0017729 334.9505  25.0875 15.30634117166915
FLOCK 3K-10             
1 43905U 18111AF  21359.58417956  .00008620  00000+0  29461-3 0  9998
2 43905  97.2142 249.6027 0017926 333.1221  26.9090 15.30362959166932
FLOCK 3K-9              
1 43906U 18111AG  21359.60281660  .00007590  00000+0  25959-3 0  9996
2 43906  97.2130 249.5142 0018485 333.3701  26.6589 15.30371814166933
ZACUBE-2                
1 43907U 18111AH  21359.48328880  .00003926  00000+0  15553-3 0  9997
2 43907  97.2105 246.9872 0020427 341.9701 142.6932 15.25792027166759
